PCSAT (NO-44)           
1 26931U 01043C   26068.55835784  .00000217  00000+0  11176-3 0  9994
2 26931  67.0506 141.9526 0007015 265.3804  94.6497 14.31912221276185
IRIDIUM 130             
1 43073U 17083D   26068.90267544  .00000001  00000+0 -66750-5 0  9995
2 43073  86.4028   3.7574 0001825  90.7485 269.3920 14.34217420429882
