[{"OBJECT_NAME":"PCSAT (NO-44)","OBJECT_ID":"2001-043C","EPOCH":"2026-03-09T13:24:02.117376","MEAN_MOTION":14.31912221,"ECCENTRICITY":0.0007015,"INCLINATION":67.0506,"RA_OF_ASC_NODE":141.9526,"ARG_OF_PERICENTER":265.3804,"MEAN_ANOMALY":94.6497,"EPHEMERIS_TYPE":0,"CLASSIFICATION_TYPE":"U","NORAD_CAT_ID":26931,"ELEMENT_SET_NO":999,"REV_AT_EPOCH":27618,"BSTAR":0.00011176,"MEAN_MOTION_DOT":2.17e-6,"MEAN_MOTION_DDOT":0},{"OBJECT_NAME":"IRIDIUM 130","OBJECT_ID":"2017-083D","EPOCH":"2026-03-09T21:39:51.158880","MEAN_MOTION":14.3421742,"ECCENTRICITY":0.00018247,"INCLINATION":86.4028,"RA_OF_ASC_NODE":3.7574,"ARG_OF_PERICENTER":90.7485,"MEAN_ANOMALY":269.392,"EPHEMERIS_TYPE":0,"CLASSIFICATION_TYPE":"U","NORAD_CAT_ID":43073,"ELEMENT_SET_NO":999,"REV_AT_EPOCH":42988,"BSTAR":-6.674968e-6,"MEAN_MOTION_DOT":1.0e-8,"MEAN_MOTION_DDOT":0}]
